{
  "norad_id": 62388,
  "name": "GITAI-SC1",
  "history": [
    {
      "epoch": "2026-03-28T12:39:31.508928Z",
      "apogee_km": 504.98282541503704,
      "perigee_km": 503.70364763827547,
      "latitude_deg": 3.772631555391116e-05,
      "longitude_deg": 11.682638040819503,
      "height_km": 504.1046153117082,
      "semi_major_axis_km": 6882.480236526656,
      "eccentricity": 9.293e-05,
      "inclination_deg": 45.004,
      "raan_deg": 27.5105,
      "arg_perigee_deg": 291.9041,
      "mean_anomaly_deg": 68.1741,
      "mean_motion_rev_day": 15.20496072
    },
    {
      "epoch": "2026-03-30T02:30:04.378176Z",
      "apogee_km": 504.82042959094633,
      "perigee_km": 503.6903407612999,
      "latitude_deg": 1.4503705531144048e-07,
      "longitude_deg": 153.97701115667954,
      "height_km": 504.0600410875314,
      "semi_major_axis_km": 6882.392385176123,
      "eccentricity": 8.21e-05,
      "inclination_deg": 45.0036,
      "raan_deg": 18.996,
      "arg_perigee_deg": 290.209,
      "mean_anomaly_deg": 69.8702,
      "mean_motion_rev_day": 15.20525185
    },
    {
      "epoch": "2026-03-30T02:30:04.379040Z",
      "apogee_km": 504.82036076702207,
      "perigee_km": 503.6904095852242,
      "latitude_deg": -6.203628014892683e-07,
      "longitude_deg": 153.97700678573884,
      "height_km": 504.0600648596943,
      "semi_major_axis_km": 6882.392385176123,
      "eccentricity": 8.209e-05,
      "inclination_deg": 45.0036,
      "raan_deg": 18.996,
      "arg_perigee_deg": 290.209,
      "mean_anomaly_deg": 69.8702,
      "mean_motion_rev_day": 15.20525185
    },
    {
      "epoch": "2026-03-30T11:57:42.185088Z",
      "apogee_km": 504.7833206470623,
      "perigee_km": 503.6839307633127,
      "latitude_deg": -5.36533955280739e-05,
      "longitude_deg": 9.552300308953205,
      "height_km": 504.05450403554784,
      "semi_major_axis_km": 6882.370625705187,
      "eccentricity": 7.987e-05,
      "inclination_deg": 45.0036,
      "raan_deg": 16.8674,
      "arg_perigee_deg": 288.9996,
      "mean_anomaly_deg": 71.0797,
      "mean_motion_rev_day": 15.20532396
    },
    {
      "epoch": "2026-03-30T19:50:43.562112Z",
      "apogee_km": 504.7587944262941,
      "perigee_km": 503.6705569793321,
      "latitude_deg": -7.764880734195465e-07,
      "longitude_deg": -110.80105703732568,
      "height_km": 504.04863465339145,
      "semi_major_axis_km": 6882.351675702813,
      "eccentricity": 7.906e-05,
      "inclination_deg": 45.0035,
      "raan_deg": 15.0935,
      "arg_perigee_deg": 287.7473,
      "mean_anomaly_deg": 72.3321,
      "mean_motion_rev_day": 15.20538676
    },
    {
      "epoch": "2026-03-31T11:36:46.027584Z",
      "apogee_km": 504.6980058134923,
      "perigee_km": 503.66744725764147,
      "latitude_deg": -3.767270546274307e-05,
      "longitude_deg": 8.493392236255835,
      "height_km": 504.0266225629698,
      "semi_major_axis_km": 6882.319726535567,
      "eccentricity": 7.487e-05,
      "inclination_deg": 45.0036,
      "raan_deg": 11.5458,
      "arg_perigee_deg": 287.6108,
      "mean_anomaly_deg": 72.469,
      "mean_motion_rev_day": 15.20549264
    },
    {
      "epoch": "2026-04-01T11:15:48.953376Z",
      "apogee_km": 504.6154919818291,
      "perigee_km": 503.6671140316739,
      "latitude_deg": -1.94366974492693e-05,
      "longitude_deg": 7.4381165079427,
      "height_km": 504.0133081458424,
      "semi_major_axis_km": 6882.278303006751,
      "eccentricity": 6.89e-05,
      "inclination_deg": 45.0033,
      "raan_deg": 6.224,
      "arg_perigee_deg": 285.6229,
      "mean_anomaly_deg": 74.4575,
      "mean_motion_rev_day": 15.20562992
    },
    {
      "epoch": "2026-04-02T17:13:15.368736Z",
      "apogee_km": 504.4740747748074,
      "perigee_km": 503.6688563843345,
      "latitude_deg": -3.40575893669264e-05,
      "longitude_deg": -89.89346501401984,
      "height_km": 503.9955263328328,
      "semi_major_axis_km": 6882.208465579571,
      "eccentricity": 5.85e-05,
      "inclination_deg": 45.003,
      "raan_deg": 359.4828,
      "arg_perigee_deg": 280.8116,
      "mean_anomaly_deg": 79.2698,
      "mean_motion_rev_day": 15.20586137
    },
    {
      "epoch": "2026-04-02T17:13:15.369600Z",
      "apogee_km": 504.4743500631457,
      "perigee_km": 503.66858109599525,
      "latitude_deg": 4.028235844227374e-05,
      "longitude_deg": -89.89339470134065,
      "height_km": 503.9954654735906,
      "semi_major_axis_km": 6882.208465579571,
      "eccentricity": 5.854e-05,
      "inclination_deg": 45.003,
      "raan_deg": 359.4828,
      "arg_perigee_deg": 280.8117,
      "mean_anomaly_deg": 79.2698,
      "mean_motion_rev_day": 15.20586137
    },
    {
      "epoch": "2026-04-03T02:40:51.634272Z",
      "apogee_km": 504.40882299883197,
      "perigee_km": 503.64834370187236,
      "latitude_deg": -5.879783377699815e-05,
      "longitude_deg": 125.68819274932488,
      "height_km": 503.96770870109924,
      "semi_major_axis_km": 6882.165583350352,
      "eccentricity": 5.525e-05,
      "inclination_deg": 45.003,
      "raan_deg": 357.3541,
      "arg_perigee_deg": 279.1445,
      "mean_anomaly_deg": 80.9372,
      "mean_motion_rev_day": 15.20600349
    },
    {
      "epoch": "2026-04-04T02:19:51.561120Z",
      "apogee_km": 504.24248987802,
      "perigee_km": 503.67100081340686,
      "latitude_deg": -5.6719943865228485e-05,
      "longitude_deg": 124.6449293026221,
      "height_km": 503.9655099855321,
      "semi_major_axis_km": 6882.093745345714,
      "eccentricity": 4.152e-05,
      "inclination_deg": 45.0025,
      "raan_deg": 352.0318,
      "arg_perigee_deg": 268.1142,
      "mean_anomaly_deg": 91.969,
      "mean_motion_rev_day": 15.20624158
    },
    {
      "epoch": "2026-04-05T09:51:49.573152Z",
      "apogee_km": 504.249908482574,
      "perigee_km": 503.52440549594394,
      "latitude_deg": -3.328783185490784e-05,
      "longitude_deg": 3.2618289049525138,
      "height_km": 503.9331886495564,
      "semi_major_axis_km": 6882.024156989259,
      "eccentricity": 5.271e-05,
      "inclination_deg": 45.0027,
      "raan_deg": 344.9354,
      "arg_perigee_deg": 262.6275,
      "mean_anomaly_deg": 97.4545,
      "mean_motion_rev_day": 15.20647222
    },
    {
      "epoch": "2026-04-06T01:37:47.989056Z",
      "apogee_km": 504.2472166328689,
      "perigee_km": 503.4691382581068,
      "latitude_deg": -4.753086279462756e-05,
      "longitude_deg": 122.5727179979207,
      "height_km": 503.92805315463727,
      "semi_major_axis_km": 6881.995177445488,
      "eccentricity": 5.653e-05,
      "inclination_deg": 45.0027,
      "raan_deg": 341.3872,
      "arg_perigee_deg": 259.5803,
      "mean_anomaly_deg": 100.5013,
      "mean_motion_rev_day": 15.20656827
    },
    {
      "epoch": "2026-04-07T01:16:45.025824Z",
      "apogee_km": 504.1207497536416,
      "perigee_km": 503.5099076649449,
      "latitude_deg": 1.2296370330294163e-05,
      "longitude_deg": 121.5426846391458,
      "height_km": 503.9377476356813,
      "semi_major_axis_km": 6881.9523287092925,
      "eccentricity": 4.438e-05,
      "inclination_deg": 44.9994,
      "raan_deg": 336.066,
      "arg_perigee_deg": 246.1626,
      "mean_anomaly_deg": 113.9208,
      "mean_motion_rev_day": 15.20671029
    }
  ]
}